[{"OBJECT_NAME":"NEXTSAT-2","OBJECT_ID":"2023-072A","EPOCH":"2026-03-09T23:10:55.073280","MEAN_MOTION":15.26393087,"ECCENTRICITY":0.00062633,"INCLINATION":97.5306,"RA_OF_ASC_NODE":265.1019,"ARG_OF_PERICENTER":22.4193,"MEAN_ANOMALY":337.7318,"EPHEMERIS_TYPE":0,"CLASSIFICATION_TYPE":"U","NORAD_CAT_ID":56743,"ELEMENT_SET_NO":999,"REV_AT_EPOCH":15445,"BSTAR":0.00056400163,"MEAN_MOTION_DOT":0.00014622,"MEAN_MOTION_DDOT":0},{"OBJECT_NAME":"STARLINK-35933","OBJECT_ID":"2025-265P","EPOCH":"2026-03-09T21:53:33.594432","MEAN_MOTION":15.27609192,"ECCENTRICITY":0.00015349,"INCLINATION":43.001,"RA_OF_ASC_NODE":277.0061,"ARG_OF_PERICENTER":264.9236,"MEAN_ANOMALY":95.144,"EPHEMERIS_TYPE":0,"CLASSIFICATION_TYPE":"U","NORAD_CAT_ID":66529,"ELEMENT_SET_NO":999,"REV_AT_EPOCH":1714,"BSTAR":0.00090324602,"MEAN_MOTION_DOT":0.00024699,"MEAN_MOTION_DDOT":0}]
